LEMUR-2-ANDIS           
1 42838U 17042P   26068.55941107  .00023598  00000+0  79875-3 0  9998
2 42838  97.3659 249.7950 0009101   4.3248 355.8070 15.30557934473198
STARLINK-32777          
1 62525U 25004Q   26068.48738830  .00034548  00000+0  12579-2 0  9993
2 62525  43.0031 221.3646 0002890 279.5480  80.5044 15.27610049 66425
